{
  "type": "FeatureCollection",
  "features": [
    {
      "type": "Feature",
      "properties": {
        "norad_id": 66661,
        "name": "SNUGLITE-III",
        "group": "last-30-days",
        "lat": 36.56414067432713,
        "lon": -78.83336791405749,
        "alt_km": 594.5614758542606,
        "timestamp": "2025-12-25T22:42:15.707636+00:00",
        "meta_object_name": "SNUGLITE-III",
        "meta_object_id": "2025-274M",
        "meta_epoch": "2025-12-25T17:42:50.630400",
        "meta_mean_motion": 14.93161533,
        "meta_eccentricity": 0.0013466,
        "meta_inclination": 97.7401,
        "meta_ra_of_asc_node": 286.7518,
        "meta_arg_of_pericenter": 233.865,
        "meta_mean_anomaly": 126.1324,
        "meta_ephemeris_type": 0,
        "meta_classification_type": "U",
        "meta_norad_cat_id": 66661,
        "meta_element_set_no": 999,
        "meta_rev_at_epoch": 434,
        "meta_bstar": 0.00027774,
        "meta_mean_motion_dot": 2.847e-05,
        "meta_mean_motion_ddot": 0,
        "tle_line1": "1 66661U 25274M   25359.73808600  .00002847  00000+0  27774-3 0  9991",
        "tle_line2": "2 66661  97.7401 286.7518 0013466 233.8650 126.1324 14.93161533  4345"
      },
      "geometry": {
        "type": "Point",
        "coordinates": [
          -78.83336791405749,
          36.56414067432713
        ]
      }
    },
    {
      "type": "Feature",
      "properties": {
        "norad_id": 66662,
        "name": "2025-274N",
        "group": "last-30-days",
        "lat": 42.42773532885184,
        "lon": -80.18193372177882,
        "alt_km": 594.0094125178503,
        "timestamp": "2025-12-25T22:42:15.707646+00:00",
        "meta_object_name": "2025-274N",
        "meta_object_id": "2025-274N",
        "meta_epoch": "2025-12-25T17:41:15.359712",
        "meta_mean_motion": 14.93217932,
        "meta_eccentricity": 0.0013907,
        "meta_inclination": 97.7402,
        "meta_ra_of_asc_node": 286.7537,
        "meta_arg_of_pericenter": 233.6564,
        "meta_mean_anomaly": 126.3373,
        "meta_ephemeris_type": 0,
        "meta_classification_type": "U",
        "meta_norad_cat_id": 66662,
        "meta_element_set_no": 999,
        "meta_rev_at_epoch": 434,
        "meta_bstar": 0.00029062,
        "meta_mean_motion_dot": 2.986e-05,
        "meta_mean_motion_ddot": 0,
        "tle_line1": "1 66662U 25274N   25359.73698333  .00002986  00000+0  29062-3 0  9998",
        "tle_line2": "2 66662  97.7402 286.7537 0013907 233.6564 126.3373 14.93217932  4341"
      },
      "geometry": {
        "type": "Point",
        "coordinates": [
          -80.18193372177882,
          42.42773532885184
        ]
      }
    },
    {
      "type": "Feature",
      "properties": {
        "norad_id": 66663,
        "name": "KSLV-II R/B",
        "group": "last-30-days",
        "lat": 52.11072614267636,
        "lon": 117.2387751657086,
        "alt_km": 604.1987973161349,
        "timestamp": "2025-12-25T22:42:15.707656+00:00",
        "meta_object_name": "KSLV-II R/B",
        "meta_object_id": "2025-274P",
        "meta_epoch": "2025-12-23T05:59:25.426176",
        "meta_mean_motion": 14.97536982,
        "meta_eccentricity": 0.00600006,
        "meta_inclination": 97.7435,
        "meta_ra_of_asc_node": 284.4956,
        "meta_arg_of_pericenter": 282.7951,
        "meta_mean_anomaly": 76.657,
        "meta_ephemeris_type": 0,
        "meta_classification_type": "U",
        "meta_norad_cat_id": 66663,
        "meta_element_set_no": 999,
        "meta_rev_at_epoch": 398,
        "meta_bstar": 0.0011394408,
        "meta_mean_motion_dot": 0.00013749,
        "meta_mean_motion_ddot": 0,
        "tle_line1": "1 66663U 25274P   25357.24959984  .00013749  00000+0  11394-2 0  9992",
        "tle_line2": "2 66663  97.7435 284.4956 0060000 282.7951  76.6570 14.97536982  3987"
      },
      "geometry": {
        "type": "Point",
        "coordinates": [
          117.2387751657086,
          52.11072614267636
        ]
      }
    },
    {
      "type": "Feature",
      "properties": {
        "norad_id": 66664,
        "name": "SOYUZ-MS 28",
        "group": "last-30-days",
        "lat": -34.903031502814066,
        "lon": 43.518175292217,
        "alt_km": 419.05616162422757,
        "timestamp": "2025-12-25T22:42:15.707666+00:00",
        "meta_object_name": "SOYUZ-MS 28",
        "meta_object_id": "2025-275A",
        "meta_epoch": "2025-12-25T13:37:14.375136",
        "meta_mean_motion": 15.49813539,
        "meta_eccentricity": 0.0003224,
        "meta_inclination": 51.6318,
        "meta_ra_of_asc_node": 78.9495,
        "meta_arg_of_pericenter": 299.9641,
        "meta_mean_anomaly": 60.1027,
        "meta_ephemeris_type": 0,
        "meta_classification_type": "U",
        "meta_norad_cat_id": 66664,
        "meta_element_set_no": 999,
        "meta_rev_at_epoch": 443,
        "meta_bstar": 0.00025591,
        "meta_mean_motion_dot": 0.00014081,
        "meta_mean_motion_ddot": 0,
        "tle_line1": "1 66664U 25275A   25359.56752749  .00014081  00000+0  25591-3 0  9996",
        "tle_line2": "2 66664  51.6318  78.9495 0003224 299.9641  60.1027 15.49813539  4432"
      },
      "geometry": {
        "type": "Point",
        "coordinates": [
          43.518175292217,
          -34.903031502814066
        ]
      }
    },
    {
      "type": "Feature",
      "properties": {
        "norad_id": 66666,
        "name": "FORMOSAT-8A",
        "group": "last-30-days",
        "lat": -65.32726279148012,
        "lon": -125.3381158725214,
        "alt_km": 571.7150586558082,
        "timestamp": "2025-12-25T22:42:15.707676+00:00",
        "meta_object_name": "FORMOSAT-8A",
        "meta_object_id": "2025-276A",
        "meta_epoch": "2025-12-25T16:48:27.400032",
        "meta_mean_motion": 15.00363045,
        "meta_eccentricity": 0.0004028,
        "meta_inclination": 97.6574,
        "meta_ra_of_asc_node": 71.4504,
        "meta_arg_of_pericenter": 184.8468,
        "meta_mean_anomaly": 175.2717,
        "meta_ephemeris_type": 0,
        "meta_classification_type": "U",
        "meta_norad_cat_id": 66666,
        "meta_element_set_no": 999,
        "meta_rev_at_epoch": 403,
        "meta_bstar": 0.00036897,
        "meta_mean_motion_dot": 4.574e-05,
        "meta_mean_motion_ddot": 0,
        "tle_line1": "1 66666U 25276A   25359.70031713  .00004574  00000+0  36897-3 0  9993",
        "tle_line2": "2 66666  97.6574  71.4504 0004028 184.8468 175.2717 15.00363045  4038"
      },
      "geometry": {
        "type": "Point",
        "coordinates": [
          -125.3381158725214,
          -65.32726279148012
        ]
      }
    },
    {
      "type": "Feature",
      "properties": {
        "norad_id": 66667,
        "name": "PELICAN-5",
        "group": "last-30-days",
        "lat": 54.89547542468151,
        "lon": -97.79300383022445,
        "alt_km": 507.45319275602196,
        "timestamp": "2025-12-25T22:42:15.707688+00:00",
        "meta_object_name": "PELICAN-5",
        "meta_object_id": "2025-276B",
        "meta_epoch": "2025-12-25T15:49:42.587616",
        "meta_mean_motion": 15.176255,
        "meta_eccentricity": 0.000233,
        "meta_inclination": 97.4408,
        "meta_ra_of_asc_node": 71.2104,
        "meta_arg_of_pericenter": 201.5941,
        "meta_mean_anomaly": 158.5195,
        "meta_ephemeris_type": 0,
        "meta_classification_type": "U",
        "meta_norad_cat_id": 66667,
        "meta_element_set_no": 999,
        "meta_rev_at_epoch": 408,
        "meta_bstar": 0.00043375,
        "meta_mean_motion_dot": 8.663e-05,
        "meta_mean_motion_ddot": 0,
        "tle_line1": "1 66667U 25276B   25359.65952069  .00008663  00000+0  43375-3 0  9996",
        "tle_line2": "2 66667  97.4408  71.2104 0002330 201.5941 158.5195 15.17625500  4088"
      },
      "geometry": {
        "type": "Point",
        "coordinates": [
          -97.79300383022445,
          54.89547542468151
        ]
      }
    },
    {
      "type": "Feature",
      "properties": {
        "norad_id": 66668,
        "name": "TRANSPORTER-15C",
        "group": "last-30-days",
        "lat": 50.47286158931855,
        "lon": 62.31561449889606,
        "alt_km": 505.55575294215123,
        "timestamp": "2025-12-25T22:42:15.707699+00:00",
        "meta_object_name": "TRANSPORTER-15C",
        "meta_object_id": "2025-276C",
        "meta_epoch": "2025-12-25T11:25:52.457376",
        "meta_mean_motion": 15.20396271,
        "meta_eccentricity": 0.0024543,
        "meta_inclination": 97.4284,
        "meta_ra_of_asc_node": 70.9501,
        "meta_arg_of_pericenter": 277.3035,
        "meta_mean_anomaly": 82.5411,
        "meta_ephemeris_type": 0,
        "meta_classification_type": "U",
        "meta_norad_cat_id": 66668,
        "meta_element_set_no": 999,
        "meta_rev_at_epoch": 405,
        "meta_bstar": 0.10105,
        "meta_mean_motion_dot": 0.02461991,
        "meta_mean_motion_ddot": 0,
        "tle_line1": "1 66668U 25276C   25359.47630159  .02461991  00000+0  10105+0 0  9990",
        "tle_line2": "2 66668  97.4284  70.9501 0024543 277.3035  82.5411 15.20396271  4051"
      },
      "geometry": {
        "type": "Point",
        "coordinates": [
          62.31561449889606,
          50.47286158931855
        ]
      }
    }
  ]
}